{
    "links": {
        "self": "http://www.neowsapp.com/rest/v1/neo/3276443?api_key=iIulBulltgU6a56xZRHN4H3l9WmuAYTsLGpBGhQ2"
    },
    "id": "3276443",
    "neo_reference_id": "3276443",
    "name": "(2005 GX110)",
    "designation": "2005 GX110",
    "nasa_jpl_url": "http://ssd.jpl.nasa.gov/sbdb.cgi?sstr=3276443",
    "absolute_magnitude_h": 24.129,
    "estimated_diameter": {
        "kilometers": {
            "estimated_diameter_min": 0.0396967522,
            "estimated_diameter_max": 0.0887646365
        },
        "meters": {
            "estimated_diameter_min": 39.6967522279,
            "estimated_diameter_max": 88.7646364675
        },
        "miles": {
            "estimated_diameter_min": 0.0246664106,
            "estimated_diameter_max": 0.0551557709
        },
        "feet": {
            "estimated_diameter_min": 130.2386925793,
            "estimated_diameter_max": 291.222569908
        }
    },
    "is_potentially_hazardous_asteroid": false,
    "close_approach_data": [
        {
            "close_approach_date": "2005-04-08",
            "close_approach_date_full": "2005-Apr-08 08:26",
            "epoch_date_close_approach": 1112948760000,
            "relative_velocity": {
                "kilometers_per_second": "11.7837022664",
                "kilometers_per_hour": "42421.3281589075",
                "miles_per_hour": "26358.9635996278"
            },
            "miss_distance": {
                "astronomical": "0.1204486972",
                "lunar": "46.8545432108",
                "kilometers": "18018868.545394964",
                "miles": "11196405.7298759432"
            },
            "orbiting_body": "Earth"
        }
    ],
    "orbital_data": {
        "orbit_id": "9",
        "orbit_determination_date": "2017-04-06 09:11:05",
        "first_observation_date": "2005-04-10",
        "last_observation_date": "2005-04-12",
        "data_arc_in_days": 2,
        "observations_used": 22,
        "orbit_uncertainty": "9",
        "minimum_orbit_intersection": ".114722",
        "jupiter_tisserand_invariant": "4.247",
        "epoch_osculation": "2453471.5",
        "eccentricity": ".3144032042933336",
        "semi_major_axis": "1.591159995777036",
        "inclination": "21.42631244579152",
        "ascending_node_longitude": "23.01602177961751",
        "orbital_period": "733.110102042371",
        "perihelion_distance": "1.090894194561369",
        "perihelion_argument": "152.4029817361316",
        "aphelion_distance": "2.091425796992704",
        "perihelion_time": "2453443.515380318173",
        "mean_anomaly": "13.74208738549814",
        "mean_motion": ".4910585722350247",
        "equinox": "J2000",
        "orbit_class": {
            "orbit_class_type": "AMO",
            "orbit_class_description": "Near-Earth asteroid orbits similar to that of 1221 Amor",
            "orbit_class_range": "1.017 AU < q (perihelion) < 1.3 AU"
        }
    },
    "is_sentry_object": false
}